STARLINK-30376          
1 57782U 23134M   26068.38747880 -.00003295  00000+0 -11320-3 0  9999
2 57782  42.9998 195.9286 0001721 263.6896  96.3759 15.26735214139461
FLOCK 4G-10             
1 62670U 25009BP  26068.70827885  .00013952  00000+0  52624-3 0  9995
2 62670  97.3967 150.5883 0003469 341.4844  18.6269 15.27155944121340
